[{"OBJECT_NAME":"CELTEE 1","OBJECT_ID":"2016-067C","EPOCH":"2026-03-09T13:12:53.800416","MEAN_MOTION":15.18591912,"ECCENTRICITY":9.481e-5,"INCLINATION":98.0813,"RA_OF_ASC_NODE":288.3139,"ARG_OF_PERICENTER":135.7027,"MEAN_ANOMALY":224.4281,"EPHEMERIS_TYPE":0,"CLASSIFICATION_TYPE":"U","NORAD_CAT_ID":41850,"ELEMENT_SET_NO":999,"REV_AT_EPOCH":51075,"BSTAR":0.00037655769,"MEAN_MOTION_DOT":7.714e-5,"MEAN_MOTION_DDOT":0},{"OBJECT_NAME":"UNKNOWN","OBJECT_ID":"","EPOCH":"2026-03-05T07:23:30.759360","MEAN_MOTION":15.16846688,"ECCENTRICITY":0.00030538,"INCLINATION":98.6694,"RA_OF_ASC_NODE":94.3286,"ARG_OF_PERICENTER":181.4323,"MEAN_ANOMALY":178.6899,"EPHEMERIS_TYPE":0,"CLASSIFICATION_TYPE":"U","NORAD_CAT_ID":270304,"ELEMENT_SET_NO":999,"REV_AT_EPOCH":26068,"BSTAR":0.007049134,"MEAN_MOTION_DOT":0.00141256,"MEAN_MOTION_DDOT":0}]
